NORAD_CAT_ID,OBJECT_NAME,OBJECT_TYPE,EPOCH,MEAN_MOTION,ECCENTRICITY,INCLINATION,RA_OF_ASC_NODE,ARG_OF_PERICENTER,MEAN_ANOMALY,BSTAR,MEAN_MOTION_DOT,MEAN_MOTION_DDOT,TLE_LINE0,TLE_LINE1,TLE_LINE2,SEMIMAJOR_AXIS,PERIOD,APOGEE,PERIGEE,DECAYED
51464.0,STARLINK-3189,PAYLOAD,2022-12-27 08:24:17,15.08843771,0.0002784,53.2155,124.0047,44.6578,315.4638,0.00015869,2.238e-05,0.0,0 STARLINK-3189,1 51464U 22010J   22361.35020584  .00002238  00000-0  15869-3 0  9993,2 51464  53.2155 124.0047 0002784  44.6578 315.4638 15.08843771 50892,6917.869000000002,95.437,541.66,537.808,0.0
51464.0,STARLINK-3189,PAYLOAD,2022-12-27 17:56:35,15.08851844,0.0002946,53.215,122.2225,41.8686,318.2531,0.00022203,3.248e-05,0.0,0 STARLINK-3189,1 51464U 22010J   22361.74763819  .00003248  00000-0  22203-3 0  9993,2 51464  53.2150 122.2225 0002946  41.8686 318.2531 15.08851844 51001,6917.844,95.437,541.747,537.6709999999998,0.0
51464.0,STARLINK-3189,PAYLOAD,2022-12-28 08:15:03,15.08853536,0.0002923,53.2155,119.5476,37.6895,322.4301,0.00011482,1.5399999999999998e-05,0.0,0 STARLINK-3189,1 51464U 22010J   22362.34379540  .00001540  00000-0  11482-3 0  9994,2 51464  53.2155 119.5476 0002923  37.6895 322.4301 15.08853536 51094,6917.839,95.437,541.726,537.682,0.0
51464.0,STARLINK-3189,PAYLOAD,2022-12-29 06:30:28,15.08837076,0.0002821,53.216,115.3844,31.6622,328.4539,-0.00013819,-2.487e-05,0.0,0 STARLINK-3189,1 51464U 22010J   22363.27116581 -.00002487  00000-0 -13819-3 0  9990,2 51464  53.2160 115.3844 0002821  31.6622 328.4539 15.08837076 51182,6917.889,95.438,541.706,537.803,0.0
51464.0,STARLINK-3189,PAYLOAD,2022-12-29 08:05:51,15.0883661,0.0002824,53.216,115.087,28.0072,332.1072,-0.00013351,-2.413e-05,0.0,0 STARLINK-3189,1 51464U 22010J   22363.33740622 -.00002413  00000-0 -13351-3 0  9996,2 51464  53.2160 115.0870 0002824  28.0072 332.1072 15.08836610 51244,6917.891,95.438,541.7090000000002,537.802,0.0
51464.0,STARLINK-3189,PAYLOAD,2022-12-29 14:27:25,15.08832258,0.0002819,53.2168,113.8957,44.0792,316.0425,-0.00012669,-2.304e-05,0.0,0 STARLINK-3189,1 51464U 22010J   22363.60237722 -.00002304  00000-0 -12669-3 0  9998,2 51464  53.2168 113.8957 0002819  44.0792 316.0425 15.08832258 51231,6917.904,95.438,541.719,537.819,0.0
51464.0,STARLINK-3189,PAYLOAD,2022-12-30 12:42:48,15.08836942,0.0002706999999999,53.2157,109.7339,43.1776,316.9428,0.00020076,2.908e-05,0.0,0 STARLINK-3189,1 51464U 22010J   22364.52973086  .00002908  00000-0  20076-3 0  9999,2 51464  53.2157 109.7339 0002707  43.1776 316.9428 15.08836942 51376,6917.89,95.438,541.627,537.882,0.0
51464.0,STARLINK-3189,PAYLOAD,2022-12-30 17:28:57,15.08848549,0.0002743,53.2159,108.84,39.8842,320.2351,0.00027932,4.161e-05,0.0,0 STARLINK-3189,1 51464U 22010J   22364.72844217  .00004161  00000-0  27932-3 0  9995,2 51464  53.2159 108.8400 0002743  39.8842 320.2351 15.08848549 51406,6917.854,95.437,541.617,537.822,0.0
51464.0,STARLINK-3189,PAYLOAD,2022-12-31 14:08:57,15.08860831,0.0002773,53.216,104.9749,39.4582,320.6611,0.00031944,4.802e-05,0.0,0 STARLINK-3189,1 51464U 22010J   22365.58955804  .00004802  00000-0  31944-3 0  9995,2 51464  53.2160 104.9749 0002773  39.4582 320.6611 15.08860831 51581,6917.816999999999,95.436,541.6,537.763,0.0
51464.0,STARLINK-3189,PAYLOAD,2022-12-31 15:44:21,15.08855055,0.0002756,53.2151,104.6776,37.8576,322.261,0.000281,4.188e-05,0.0,0 STARLINK-3189,1 51464U 22010J   22365.65579937  .00004188  00000-0  28100-3 0  9999,2 51464  53.2151 104.6776 0002756  37.8576 322.2610 15.08855055 51594,6917.834,95.437,541.606,537.793,0.0
51464.0,STARLINK-3189,PAYLOAD,2023-01-01 07:38:13,15.08829082,0.0002544,53.2156,101.7033,29.7049,330.4087,-0.0003793,-6.318e-05,0.0,0 STARLINK-3189,1 51464U 22010J   23001.31821056 -.00006318  00000-0 -37930-3 0  9992,2 51464  53.2156 101.7033 0002544  29.7049 330.4087 15.08829082 51649,6917.9140000000025,95.438,541.539,538.019,0.0
51464.0,STARLINK-3189,PAYLOAD,2023-01-01 10:48:59,15.08823174,0.0002533,53.2151,101.1088,30.0392,330.0745,-0.00042831,-7.096e-05,0.0,0 STARLINK-3189,1 51464U 22010J   23001.45069433 -.00007096  00000-0 -42831-3 0  9990,2 51464  53.2151 101.1088 0002533  30.0392 330.0745 15.08823174 51713,6917.932,95.439,541.549,538.045,0.0
51464.0,STARLINK-3189,PAYLOAD,2023-01-01 15:35:09,15.08826311,0.0002588,53.215,100.2168,31.3004,328.8142,-0.0003306,-5.544e-05,0.0,0 STARLINK-3189,1 51464U 22010J   23001.64941473 -.00005544  00000-0 -33060-3 0  9994,2 51464  53.2150 100.2168 0002588  31.3004 328.8142 15.08826311 51740,6917.922,95.438,541.578,537.997,0.0
51464.0,STARLINK-3189,PAYLOAD,2023-01-02 12:15:10,15.08837691,0.0002634999999999,53.2147,96.35,28.2446,331.8688,0.00025997,3.851e-05,0.0,0 STARLINK-3189,1 51464U 22010J   23002.51053630  .00003851  00000-0  25997-3 0  9997,2 51464  53.2147  96.3500 0002635  28.2446 331.8688 15.08837691 51820,6917.887,95.438,541.575,537.93,0.0
51464.0,STARLINK-3189,PAYLOAD,2023-01-02 15:25:56,15.08838446,0.0002626,53.2147,95.7558,27.1159,332.997,0.000537,8.268e-05,0.0,0 STARLINK-3189,1 51464U 22010J   23002.64301879  .00008268  00000-0  53700-3 0  9992,2 51464  53.2147  95.7558 0002626  27.1159 332.9970 15.08838446 51897,6917.885,95.438,541.567,537.934,0.0
51464.0,STARLINK-3189,PAYLOAD,2023-01-03 12:05:58,15.08839463,0.0002863999999999,53.2147,91.8905,27.951,332.1636,0.00038716,5.879e-05,0.0,0 STARLINK-3189,1 51464U 22010J   23003.50414415  .00005879  00000-0  38716-3 0  9994,2 51464  53.2147  91.8905 0002864  27.9510 332.1636 15.08839463 52020,6917.882,95.438,541.7280000000002,537.766,0.0
51464.0,STARLINK-3189,PAYLOAD,2023-01-03 15:16:44,15.08834121,0.0002701,53.2146,91.2946,27.3014,332.8119999999999,0.00028882,4.311e-05,0.0,0 STARLINK-3189,1 51464U 22010J   23003.63662607  .00004311  00000-0  28882-3 0  9999,2 51464  53.2146  91.2946 0002701  27.3014 332.8120 15.08834121 51997,6917.898,95.438,541.632,537.895,0.0
51464.0,STARLINK-3189,PAYLOAD,2023-01-04 10:21:22,15.08843088,0.0002806,53.215,87.7267,28.4952,331.6193,0.00022306,3.264e-05,0.0,0 STARLINK-3189,1 51464U 22010J   23004.43150498  .00003264  00000-0  22306-3 0  9999,2 51464  53.2150  87.7267 0002806  28.4952 331.6193 15.08843088 52166,6917.871,95.437,541.677,537.795,0.0
51464.0,STARLINK-3189,PAYLOAD,2023-01-04 11:56:44,15.08847499,0.0002706999999999,53.2151,87.4288,29.1773,330.9369999999999,0.00027703,4.124e-05,0.0,0 STARLINK-3189,1 51464U 22010J   23004.49774293  .00004124  00000-0  27703-3 0  9992,2 51464  53.2151  87.4288 0002707  29.1773 330.9370 15.08847499 52176,6917.857,95.437,541.595,537.85,0.0
51464.0,STARLINK-3189,PAYLOAD,2023-01-05 07:01:22,15.08842498,0.0003346,53.2159,83.8642,20.6059,339.5068,1.1175e-05,-1.11e-06,0.0,0 STARLINK-3189,1 51464U 22010J   23005.29261823 -.00000111  00000-0  11175-4 0  9991,2 51464  53.2159  83.8642 0003346  20.6059 339.5068 15.08842498 52242,6917.873000000001,95.437,542.052,537.423,0.0
51464.0,STARLINK-3189,PAYLOAD,2023-01-05 11:47:31,15.08844053,0.00029,53.2153,82.9687,25.0398,335.0734,7.5998e-05,9.21e-06,0.0,0 STARLINK-3189,1 51464U 22010J   23005.49133885  .00000921  00000-0  75998-4 0  9990,2 51464  53.2153  82.9687 0002900  25.0398 335.0734 15.08844053 52324,6917.868,95.437,541.739,537.727,0.0
51464.0,STARLINK-3189,PAYLOAD,2023-01-05 14:58:17,15.08842295,0.0002908999999999,53.2154,82.3743,24.0312,336.0815,4.0424e-05,3.55e-06,0.0,0 STARLINK-3189,1 51464U 22010J   23005.62381844  .00000355  00000-0  40424-4 0  9992,2 51464  53.2154  82.3743 0002909  24.0312 336.0815 15.08842295 52345,6917.873000000001,95.437,541.751,537.726,0.0
51464.0,STARLINK-3189,PAYLOAD,2023-01-06 11:38:18,15.08844927,0.0002963,53.2151,78.5088,20.3985,339.7125,-4.0966e-05,-9.41e-06,0.0,0 STARLINK-3189,1 51464U 22010J   23006.48493477 -.00000941  00000-0 -40966-4 0  9997,2 51464  53.2151  78.5088 0002963  20.3985 339.7125 15.08844927 52423,6917.865,95.437,541.78,537.681,0.0
51464.0,STARLINK-3189,PAYLOAD,2023-01-06 14:49:04,15.08843984,0.0002964,53.215,77.9142,20.6705,339.4407,-3.2157e-05,-8.01e-06,0.0,0 STARLINK-3189,1 51464U 22010J   23006.61741490 -.00000801  00000-0 -32157-4 0  9991,2 51464  53.2150  77.9142 0002964  20.6705 339.4407 15.08843984 52499,6917.868,95.437,541.784,537.683,0.0
51464.0,STARLINK-3189,PAYLOAD,2023-01-07 05:07:32,15.08850588,0.0002872,53.2155,75.2377,18.0075,342.1018,0.00017161,2.445e-05,0.0,0 STARLINK-3189,1 51464U 22010J   23007.21357064  .00002445  00000-0  17161-3 0  9999,2 51464  53.2155  75.2377 0002872  18.0075 342.1018 15.08850588 52581,6917.848000000001,95.437,541.7,537.726,0.0
51464.0,STARLINK-3189,PAYLOAD,2023-01-07 21:01:25,15.08824288,0.0002848,53.2155,72.2658,17.9891,342.1201,-0.00017954,-3.144e-05,0.0,0 STARLINK-3189,1 51464U 22010J   23007.87598404 -.00003144  00000-0 -17954-3 0  9995,2 51464  53.2155  72.2658 0002848  17.9891 342.1201 15.08824288 52635,6917.928000000001,95.439,541.764,537.823,0.0
51464.0,STARLINK-3189,PAYLOAD,2023-01-08 12:55:16,15.08836886,0.0003043,53.2152,69.291,20.8945,339.2171,8.893200000000001e-05,1.127e-05,0.0,0 STARLINK-3189,1 51464U 22010J   23008.53838538  .00001127  00000-0  88932-4 0  9996,2 51464  53.2152  69.2910 0003043  20.8945 339.2171 15.08836886 52731,6917.89,95.438,541.86,537.65,0.0
51464.0,STARLINK-3189,PAYLOAD,2023-01-08 20:52:11,15.08845608,0.0003164,53.215,67.8037,22.0276,338.0852,0.00018841,2.712e-05,0.0,0 STARLINK-3189,1 51464U 22010J   23008.86958251  .00002712  00000-0  18841-3 0  9999,2 51464  53.2150  67.8037 0003164  22.0276 338.0852 15.08845608 52834,6917.863,95.437,541.9169999999998,537.539,0.0
51464.0,STARLINK-3189,PAYLOAD,2023-01-09 06:24:31,15.08848099,0.000294,53.2147,66.0194,22.6475,337.4646,0.00064849,0.0001005,0.0,0 STARLINK-3189,1 51464U 22010J   23009.26702615  .00010050  00000-0  64849-3 0  9998,2 51464  53.2147  66.0194 0002940  22.6475 337.4646 15.08848099 52890,6917.856,95.437,541.754,537.687,0.0
